ONEWEB-0160             
1 48060U 21025U   24022.33477357 -.00000295  00000+0 -84333-3 0  9998
2 48060  87.9017 134.7658 0002306 128.5154 231.6182 13.13469467138451
ONEWEB-0163             
1 48061U 21025V   24021.86342859 -.00000109  00000+0 -33427-3 0  9996
2 48061  87.9012 134.8556 0001474  94.0692 266.0606 13.13467921138517
ONEWEB-0159             
1 48062U 21025W   24021.85232303  .00000047  00000+0  92906-4 0  9995
2 48062  87.8995 134.8431 0001778  97.1027 263.0304 13.13473677138430
ONEWEB-0164             
1 48063U 21025X   24021.83487819  .00000313  00000+0  82091-3 0  9997
2 48063  87.9012 134.8561 0001760 104.3669 255.7656 13.13470489138414
ONEWEB-0167             
1 48064U 21025Y   24021.86422680 -.00000245  00000+0 -70478-3 0  9998
2 48064  87.9015 134.8599 0001523 101.5982 258.5319 13.13472102138403
ONEWEB-0166             
1 48065U 21025Z   24022.34270547 -.00000274  00000+0 -78527-3 0  9991
2 48065  87.9009 134.7544 0001374 107.4095 252.7184 13.13468769138545
ONEWEB-0151             
1 48066U 21025AA  24021.81105717 -.00000145  00000+0 -43286-3 0  9990
2 48066  87.9011 134.8694 0001895 106.7908 253.3429 13.13472672138412
ONEWEB-0170             
1 48067U 21025AB  24021.81899649  .00000062  00000+0  13498-3 0  9993
2 48067  87.9012 134.8690 0002302 110.6730 249.4646 13.13470826138372
